NORAD_CAT_ID,OBJECT_NAME,OBJECT_TYPE,EPOCH,MEAN_MOTION,ECCENTRICITY,INCLINATION,RA_OF_ASC_NODE,ARG_OF_PERICENTER,MEAN_ANOMALY,BSTAR,MEAN_MOTION_DOT,MEAN_MOTION_DDOT,TLE_LINE0,TLE_LINE1,TLE_LINE2,SEMIMAJOR_AXIS,PERIOD,APOGEE,PERIGEE,DECAYED
53177.0,STARLINK-4298,PAYLOAD,2024-02-20 13:00:53,15.08841185,0.0001376,53.2173,257.6775,93.3911,266.7238,-9.29e-06,-4.36e-06,0.0,0 STARLINK-4298,1 53177U 22083AX  24051.54228148 -.00000436  00000-0 -92900-5 0  9994,2 53177  53.2173 257.6775 0001376  93.3911 266.7238 15.08841185 88751,6917.877,95.437,540.694,538.79,0.0
53177.0,STARLINK-4298,PAYLOAD,2024-02-20 19:22:25,15.08846364,0.0001411,53.2171,256.4874,95.104,265.0113,3.9929e-05,3.48e-06,0.0,0 STARLINK-4298,1 53177U 22083AX  24051.80723601  .00000348  00000-0  39929-4 0  9998,2 53177  53.2171 256.4874 0001411  95.1040 265.0113 15.08846364 89433,6917.861,95.437,540.702,538.75,0.0
53177.0,STARLINK-4298,PAYLOAD,2024-02-20 20:57:48,15.08846903,0.0001355,53.217,256.191,91.3463,268.7685,4.1564e-05,3.74e-06,0.0,0 STARLINK-4298,1 53177U 22083AX  24051.87347548  .00000374  00000-0  41564-4 0  9994,2 53177  53.2170 256.1910 0001355  91.3463 268.7685 15.08846903 88807,6917.859,95.437,540.662,538.787,0.0
53177.0,STARLINK-4298,PAYLOAD,2024-02-21 06:30:07,15.08846626,0.0001295,53.2162,254.4053,88.4324,271.6816,-2.1752e-05,-6.34e-06,0.0,0 STARLINK-4298,1 53177U 22083AX  24052.27091640 -.00000634  00000-0 -21752-4 0  9996,2 53177  53.2162 254.4053 0001295  88.4324 271.6816 15.08846626 88860,6917.86,95.437,540.621,538.829,0.0
53177.0,STARLINK-4298,PAYLOAD,2024-02-21 19:13:12,15.08836619,0.000137,53.2167,252.0266,82.7229,277.3919,8.3829e-05,1.046e-05,0.0,0 STARLINK-4298,1 53177U 22083AX  24052.80084179  .00001046  00000-0  83829-4 0  9993,2 53177  53.2167 252.0266 0001370  82.7229 277.3919 15.08836619 89588,6917.891,95.438,540.703,538.808,0.0
53177.0,STARLINK-4298,PAYLOAD,2024-02-22 19:04:00,15.08836305,0.0001244,53.2151,247.5627,81.9065,278.2068,-7.8316e-05,-1.534e-05,0.0,0 STARLINK-4298,1 53177U 22083AX  24053.79444978 -.00001534  00000-0 -78316-4 0  9998,2 53177  53.2151 247.5627 0001244  81.9065 278.2068 15.08836305 89734,6917.892,95.438,540.617,538.896,0.0
53177.0,STARLINK-4298,PAYLOAD,2024-02-22 20:39:23,15.08836294,0.000129,53.2155,247.2656,82.1377,277.9762,-7.7337e-05,-1.518e-05,0.0,0 STARLINK-4298,1 53177U 22083AX  24053.86068985 -.00001518  00000-0 -77337-4 0  9990,2 53177  53.2155 247.2656 0001290  82.1377 277.9762 15.08836294 89102,6917.892,95.438,540.649,538.864,0.0
53177.0,STARLINK-4298,PAYLOAD,2024-02-23 12:33:15,15.08832348,0.0001237,53.2152,244.2937,83.2773,276.836,1.2047e-05,-9.6e-07,0.0,0 STARLINK-4298,1 53177U 22083AX  24054.52309158 -.00000096  00000-0  12047-4 0  9990,2 53177  53.2152 244.2937 0001237  83.2773 276.8360 15.08832348 89200,6917.904,95.438,540.625,538.913,0.0
53177.0,STARLINK-4298,PAYLOAD,2024-02-23 18:54:47,15.08838266,0.000128,53.2152,243.1049,80.8157,279.298,3.8211e-05,3.2e-06,0.0,0 STARLINK-4298,1 53177U 22083AX  24054.78804798  .00000320  00000-0  38211-4 0  9998,2 53177  53.2152 243.1049 0001280  80.8157 279.2980 15.08838266 89243,6917.886,95.438,540.636,538.865,0.0
53177.0,STARLINK-4298,PAYLOAD,2024-02-24 12:24:01,15.08839824,0.0001352,53.2157,239.8342,79.47,280.6444,0.00013273,1.825e-05,0.0,0 STARLINK-4298,1 53177U 22083AX  24055.51668484  .00001825  00000-0  13273-3 0  9991,2 53177  53.2157 239.8342 0001352  79.4700 280.6444 15.08839824 89998,6917.881,95.438,540.681,538.811,0.0
53177.0,STARLINK-4298,PAYLOAD,2024-02-24 18:45:33,15.08844313,0.0001354,53.2155,238.6447,80.1405,279.974,0.00016395,2.323e-05,0.0,0 STARLINK-4298,1 53177U 22083AX  24055.78164100  .00002323  00000-0  16395-3 0  9998,2 53177  53.2155 238.6447 0001354  80.1405 279.9740 15.08844313 89395,6917.867,95.437,540.669,538.796,0.0
53177.0,STARLINK-4298,PAYLOAD,2024-02-25 18:36:20,15.08847688,0.0001413,53.2155,234.183,85.7581,274.3573,8.7641e-05,1.107e-05,0.0,0 STARLINK-4298,1 53177U 22083AX  24056.77523876  .00001107  00000-0  87641-4 0  9999,2 53177  53.2155 234.1830 0001413  85.7581 274.3573 15.08847688 90184,6917.857,95.437,540.699,538.744,0.0
53177.0,STARLINK-4298,PAYLOAD,2024-02-26 04:08:40,15.08821162,0.0001272,53.2148,232.3979,86.8717,273.2421,0.00028791,4.295e-05,0.0,0 STARLINK-4298,1 53177U 22083AX  24057.17269027  .00004295  00000-0  28791-3 0  9990,2 53177  53.2148 232.3979 0001272  86.8717 273.2421 15.08821162 90242,6917.938,95.439,540.683,538.923,0.0
53177.0,STARLINK-4298,PAYLOAD,2024-02-26 12:05:36,15.08837476,0.0001431,53.2173,230.9149,84.4717,275.6438,-6.5791e-05,-1.335e-05,0.0,0 STARLINK-4298,1 53177U 22083AX  24057.50388949 -.00001335  00000-0 -65791-4 0  9998,2 53177  53.2173 230.9149 0001431  84.4717 275.6438 15.08837476 90298,6917.888,95.438,540.743,538.763,0.0
53177.0,STARLINK-4298,PAYLOAD,2024-02-26 18:27:08,15.08838833,0.0001397,53.2178,229.7264,88.9223,271.1929,-6.4252e-05,-1.31e-05,0.0,0 STARLINK-4298,1 53177U 22083AX  24057.76884850 -.00001310  00000-0 -64252-4 0  9992,2 53177  53.2178 229.7264 0001397  88.9223 271.1929 15.08838833 89695,6917.884,95.438,540.715,538.783,0.0
53177.0,STARLINK-4298,PAYLOAD,2024-02-27 19:53:18,15.08841817,0.0001494,53.2176,224.9678,94.8033,265.3129,1.8962e-05,1.4e-07,0.0,0 STARLINK-4298,1 53177U 22083AX  24058.82868456  .00000014  00000-0  18962-4 0  9999,2 53177  53.2176 224.9678 0001494  94.8033 265.3129 15.08841817 90495,6917.875,95.437,540.773,538.706,0.0
53177.0,STARLINK-4298,PAYLOAD,2024-02-27 21:28:41,15.08845946,0.0001277,53.2152,224.6663,84.6969,275.4169,1.619e-05,-3e-07,0.0,0 STARLINK-4298,1 53177U 22083AX  24058.89492114 -.00000030  00000-0  16190-4 0  9990,2 53177  53.2152 224.6663 0001277  84.6969 275.4169 15.08845946 89866,6917.862,95.437,540.611,538.844,0.0
53177.0,STARLINK-4298,PAYLOAD,2024-02-28 03:50:14,15.08828977,0.0001213,53.2135,223.4758,86.1019,274.0112,0.00012477,1.698e-05,0.0,0 STARLINK-4298,1 53177U 22083AX  24059.15988929  .00001698  00000-0  12477-3 0  9997,2 53177  53.2135 223.4758 0001213  86.1019 274.0112 15.08828977 90547,6917.914,95.438,540.618,538.94,0.0
53177.0,STARLINK-4298,PAYLOAD,2024-02-28 19:44:05,15.08838445,0.0001393,53.2161,220.5021,84.0283,276.0868,6.9946e-05,8.25e-06,0.0,0 STARLINK-4298,1 53177U 22083AX  24059.82228725  .00000825  00000-0  69946-4 0  9997,2 53177  53.2161 220.5021 0001393  84.0283 276.0868 15.08838445 90648,6917.885,95.438,540.714,538.786,0.0
53177.0,STARLINK-4298,PAYLOAD,2024-02-29 14:48:43,15.08835361,0.0001506,53.2166,216.9369,81.3899,278.7264,-8.8396e-06,-4.29e-06,0.0,0 STARLINK-4298,1 53177U 22083AX  24060.61717492 -.00000429  00000-0 -88396-5 0  9993,2 53177  53.2166 216.9369 0001506  81.3899 278.7264 15.08835361 90122,6917.895,95.438,540.801,538.718,0.0
53177.0,STARLINK-4298,PAYLOAD,2024-02-29 17:59:30,15.08835511,0.0001427,53.2167,216.3425,82.1703,277.9451,-2.0485e-06,-3.21e-06,0.0,0 STARLINK-4298,1 53177U 22083AX  24060.74965458 -.00000321  00000-0 -20485-5 0  9990,2 53177  53.2167 216.3425 0001427  82.1703 277.9451 15.08835511 90783,6917.894,95.438,540.746,538.772,0.0
53177.0,STARLINK-4298,PAYLOAD,2024-03-01 14:39:29,15.08845812,0.0001403,53.2169,212.4765,86.1038,274.0115,0.00010219,1.339e-05,0.0,0 STARLINK-4298,1 53177U 22083AX  24061.61076352  .00001339  00000-0  10219-3 0  9993,2 53177  53.2169 212.4765 0001403  86.1038 274.0115 15.08845812 90272,6917.863,95.437,540.698,538.757,0.0
53177.0,STARLINK-4298,PAYLOAD,2024-03-01 16:14:52,15.08850835,0.0001331,53.2165,212.1804,88.6095,271.505,8.6465e-05,1.089e-05,0.0,0 STARLINK-4298,1 53177U 22083AX  24061.67700079  .00001089  00000-0  86465-4 0  9998,2 53177  53.2165 212.1804 0001331  88.6095 271.5050 15.08850835 90922,6917.847,95.437,540.633,538.792,0.0
53177.0,STARLINK-4298,PAYLOAD,2024-03-02 14:30:17,15.08835498,0.0001356,53.2164,208.0165,84.7639,275.3507,6.5045e-05,7.47e-06,0.0,0 STARLINK-4298,1 53177U 22083AX  24062.60437139  .00000747  00000-0  65045-4 0  9997,2 53177  53.2164 208.0165 0001356  84.7639 275.3507 15.08835498 90425,6917.894,95.438,540.697,538.821,0.0
53177.0,STARLINK-4298,PAYLOAD,2024-03-02 16:05:40,15.08839053,0.0001303,53.2166,207.7173,85.4836,274.6305,1.8066e-05,0.0,0.0,0 STARLINK-4298,1 53177U 22083AX  24062.67061066 -.00000000  00000-0  18066-4 0  9990,2 53177  53.2166 207.7173 0001303  85.4836 274.6305 15.08839053 91072,6917.883,95.438,540.65,538.847,0.0
53177.0,STARLINK-4298,PAYLOAD,2024-03-03 14:21:05,15.08840212,0.0001406,53.2172,203.5565,78.4265,281.6885,-0.00011444,-2.109e-05,0.0,0 STARLINK-4298,1 53177U 22083AX  24063.59797719 -.00002109  00000-0 -11444-3 0  9998,2 53177  53.2172 203.5565 0001406  78.4265 281.6885 15.08840212 90574,6917.88,95.438,540.717,538.772,0.0
53177.0,STARLINK-4298,PAYLOAD,2024-03-03 19:07:14,15.0884823,0.0001484,53.2173,202.6587,90.8639,269.2523,-0.00013965,-2.51e-05,0.0,0 STARLINK-4298,1 53177U 22083AX  24063.79669187 -.00002510  00000-0 -13965-3 0  9993,2 53177  53.2173 202.6587 0001484  90.8639 269.2523 15.08848230 90601,6917.855,95.437,540.747,538.694,0.0
53177.0,STARLINK-4298,PAYLOAD,2024-03-04 14:11:50,15.0885002,0.0001491,53.2186,199.0949,100.366,259.7501,0.00017365,2.477e-05,0.0,0 STARLINK-4298,1 53177U 22083AX  24064.59155693  .00002477  00000-0  17365-3 0  9992,2 53177  53.2186 199.0949 0001491 100.3660 259.7501 15.08850020 90728,6917.85,95.437,540.746,538.683,0.0
53177.0,STARLINK-4298,PAYLOAD,2024-03-04 15:47:12,15.08860449,0.0001302,53.2171,198.7939,73.8544,286.2592,0.0002786,4.151e-05,0.0,0 STARLINK-4298,1 53177U 22083AX  24064.65778814  .00004151  00000-0  27860-3 0  9997,2 53177  53.2171 198.7939 0001302  73.8544 286.2592 15.08860449 91376,6917.818,95.436,540.584,538.782,0.0
53177.0,STARLINK-4298,PAYLOAD,2024-03-05 01:19:32,15.08847839,0.0001284,53.2156,197.0126,43.9189,316.1905,0.00012481,1.699e-05,0.0,0 STARLINK-4298,1 53177U 22083AX  24065.05523898  .00001699  00000-0  12481-3 0  9999,2 53177  53.2156 197.0126 0001284  43.9189 316.1905 15.08847839 91437,6917.856,95.437,540.61,538.833,0.0
